{"type": "FeatureCollection", "features": [ {"type": "Feature", "properties": {"norad_id": 35980, "name": "COSMOS 2251 DEB", "group": "cosmos-2251-debris", "lat": 46.487490381389485, "lon": 126.54244841276697, "alt_km": 727.9100686777792, "timestamp": "2025-12-19T22:41:52.792905+00:00", "meta": {"OBJECT_NAME": "COSMOS 2251 DEB", "OBJECT_ID": "1993-036AVW", "EPOCH": "2025-12-15T01:39:40.666752", "MEAN_MOTION": 14.5933919, "ECCENTRICITY": 0.00539648, "INCLINATION": 73.9111, "RA_OF_ASC_NODE": 118.2073, "ARG_OF_PERICENTER": 252.458, "MEAN_ANOMALY": 107.0684, "EPHEMERIS_TYPE": 0, "CLASSIFICATION_TYPE": "U", "NORAD_CAT_ID": 35980, "ELEMENT_SET_NO": 999, "REV_AT_EPOCH": 61520, "BSTAR": 0.00098659578, "MEAN_MOTION_DOT": 4.733e-05, "MEAN_MOTION_DDOT": 0}, "tle": {"line1": "1 35980U 93036AVW 25349.06922068  .00004733  00000+0  98660-3 0  9990", "line2": "2 35980  73.9111 118.2073 0053964 252.4580 107.0684 14.59339190615208"}}, "geometry": {"type": "Point", "coordinates": [126.54244841276697, 46.487490381389485]}}, {"type": "Feature", "properties": {"norad_id": 35982, "name": "COSMOS 2251 DEB", "group": "cosmos-2251-debris", "lat": 57.778856989966165, "lon": 0.10555331605539295, "alt_km": 636.8529400876496, "timestamp": "2025-12-19T22:41:52.792915+00:00", "meta": {"OBJECT_NAME": "COSMOS 2251 DEB", "OBJECT_ID": "1993-036AVY", "EPOCH": "2025-12-19T09:17:23.032896", "MEAN_MOTION": 14.62786712, "ECCENTRICITY": 0.0064287, "INCLINATION": 74.0579, "RA_OF_ASC_NODE": 334.2037, "ARG_OF_PERICENTER": 38.5388, "MEAN_ANOMALY": 322.0342, "EPHEMERIS_TYPE": 0, "CLASSIFICATION_TYPE": "U", "NORAD_CAT_ID": 35982, "ELEMENT_SET_NO": 999, "REV_AT_EPOCH": 86263, "BSTAR": 0.0004379, "MEAN_MOTION_DOT": 2.271e-05, "MEAN_MOTION_DDOT": 0}, "tle": {"line1": "1 35982U 93036AVY 25353.38707214  .00002271  00000+0  43790-3 0  9995", "line2": "2 35982  74.0579 334.2037 0064287  38.5388 322.0342 14.62786712862630"}}, "geometry": {"type": "Point", "coordinates": [0.10555331605539295, 57.778856989966165]}}, {"type": "Feature", "properties": {"norad_id": 35987, "name": "COSMOS 2251 DEB", "group": "cosmos-2251-debris", "lat": -73.518901381735, "lon": -150.86936278642563, "alt_km": 787.304326339211, "timestamp": "2025-12-19T22:41:52.792926+00:00", "meta": {"OBJECT_NAME": "COSMOS 2251 DEB", "OBJECT_ID": "1993-036AWD", "EPOCH": "2025-12-14T05:02:56.141664", "MEAN_MOTION": 14.43139491, "ECCENTRICITY": 0.00459797, "INCLINATION": 73.9997, "RA_OF_ASC_NODE": 323.9049, "ARG_OF_PERICENTER": 89.0828, "MEAN_ANOMALY": 271.5596, "EPHEMERIS_TYPE": 0, "CLASSIFICATION_TYPE": "U", "NORAD_CAT_ID": 35987, "ELEMENT_SET_NO": 999, "REV_AT_EPOCH": 61086, "BSTAR": 0.001182332, "MEAN_MOTION_DOT": 3.997e-05, "MEAN_MOTION_DDOT": 0}, "tle": {"line1": "1 35987U 93036AWD 25348.21037201  .00003997  00000+0  11823-2 0  9995", "line2": "2 35987  73.9997 323.9049 0045979  89.0828 271.5596 14.43139491610862"}}, "geometry": {"type": "Point", "coordinates": [-150.86936278642563, -73.518901381735]}}, {"type": "Feature", "properties": {"norad_id": 35989, "name": "COSMOS 2251 DEB", "group": "cosmos-2251-debris", "lat": 24.51032667012705, "lon": 83.08550876126559, "alt_km": 782.215721743939, "timestamp": "2025-12-19T22:41:52.792936+00:00", "meta": {"OBJECT_NAME": "COSMOS 2251 DEB", "OBJECT_ID": "1993-036AWF", "EPOCH": "2025-12-15T12:43:44.525280", "MEAN_MOTION": 14.3710632, "ECCENTRICITY": 0.00221302, "INCLINATION": 74.0379, "RA_OF_ASC_NODE": 278.7, "ARG_OF_PERICENTER": 359.7916, "MEAN_ANOMALY": 0.3224, "EPHEMERIS_TYPE": 0, "CLASSIFICATION_TYPE": "U", "NORAD_CAT_ID": 35989, "ELEMENT_SET_NO": 999, "REV_AT_EPOCH": 87219, "BSTAR": 0.00023403924, "MEAN_MOTION_DOT": 6.71e-06, "MEAN_MOTION_DDOT": 0}, "tle": {"line1": "1 35989U 93036AWF 25349.53037645  .00000671  00000+0  23404-3 0  9990", "line2": "2 35989  74.0379 278.7000 0022130 359.7916   0.3224 14.37106320872193"}}, "geometry": {"type": "Point", "coordinates": [83.08550876126559, 24.51032667012705]}}, {"type": "Feature", "properties": {"norad_id": 35993, "name": "COSMOS 2251 DEB", "group": "cosmos-2251-debris", "lat": 41.67889267240797, "lon": -26.3007951685876, "alt_km": 676.5933515093511, "timestamp": "2025-12-19T22:41:52.792946+00:00", "meta": {"OBJECT_NAME": "COSMOS 2251 DEB", "OBJECT_ID": "1993-036AWK", "EPOCH": "2025-12-17T04:57:26.962848", "MEAN_MOTION": 14.65334596, "ECCENTRICITY": 0.00286802, "INCLINATION": 74.0146, "RA_OF_ASC_NODE": 324.1891, "ARG_OF_PERICENTER": 152.382, "MEAN_ANOMALY": 207.888, "EPHEMERIS_TYPE": 0, "CLASSIFICATION_TYPE": "U", "NORAD_CAT_ID": 35993, "ELEMENT_SET_NO": 999, "REV_AT_EPOCH": 60508, "BSTAR": 0.00055537326, "MEAN_MOTION_DOT": 2.986e-05, "MEAN_MOTION_DDOT": 0}, "tle": {"line1": "1 35993U 93036AWK 25351.20656207  .00002986  00000+0  55537-3 0  9996", "line2": "2 35993  74.0146 324.1891 0028680 152.3820 207.8880 14.65334596605084"}}, "geometry": {"type": "Point", "coordinates": [-26.3007951685876, 41.67889267240797]}}, {"type": "Feature", "properties": {"norad_id": 35996, "name": "COSMOS 2251 DEB", "group": "cosmos-2251-debris", "lat": -7.3708171596517955, "lon": -89.32878591434988, "alt_km": 482.2251701232635, "timestamp": "2025-12-19T22:41:52.792957+00:00", "meta": {"OBJECT_NAME": "COSMOS 2251 DEB", "OBJECT_ID": "1993-036AWN", "EPOCH": "2025-12-15T22:25:06.327264", "MEAN_MOTION": 15.09228347, "ECCENTRICITY": 0.00876626, "INCLINATION": 74.0159, "RA_OF_ASC_NODE": 96.8248, "ARG_OF_PERICENTER": 187.0066, "MEAN_ANOMALY": 172.9909, "EPHEMERIS_TYPE": 0, "CLASSIFICATION_TYPE": "U", "NORAD_CAT_ID": 35996, "ELEMENT_SET_NO": 999, "REV_AT_EPOCH": 72374, "BSTAR": 0.00054952121, "MEAN_MOTION_DOT": 9.536e-05, "MEAN_MOTION_DDOT": 0}, "tle": {"line1": "1 35996U 93036AWN 25349.93410101  .00009536  00000+0  54952-3 0  9995", "line2": "2 35996  74.0159  96.8248 0087662 187.0066 172.9909 15.09228347723745"}}, "geometry": {"type": "Point", "coordinates": [-89.32878591434988, -7.3708171596517955]}}, {"type": "Feature", "properties": {"norad_id": 35997, "name": "COSMOS 2251 DEB", "group": "cosmos-2251-debris", "lat": -36.072701150764736, "lon": 5.771243182919191, "alt_km": 717.7654530789641, "timestamp": "2025-12-19T22:41:52.792967+00:00", "meta": {"OBJECT_NAME": "COSMOS 2251 DEB", "OBJECT_ID": "1993-036AWP", "EPOCH": "2025-12-19T05:09:14.184000", "MEAN_MOTION": 14.51343045, "ECCENTRICITY": 0.0015535, "INCLINATION": 74.0424, "RA_OF_ASC_NODE": 175.1147, "ARG_OF_PERICENTER": 250.287, "MEAN_ANOMALY": 109.6616, "EPHEMERIS_TYPE": 0, "CLASSIFICATION_TYPE": "U", "NORAD_CAT_ID": 35997, "ELEMENT_SET_NO": 999, "REV_AT_EPOCH": 70978, "BSTAR": 0.00045886, "MEAN_MOTION_DOT": 1.803e-05, "MEAN_MOTION_DDOT": 0}, "tle": {"line1": "1 35997U 93036AWP 25353.21474750  .00001803  00000+0  45886-3 0  9997", "line2": "2 35997  74.0424 175.1147 0015535 250.2870 109.6616 14.51343045709785"}}, "geometry": {"type": "Point", "coordinates": [5.771243182919191, -36.072701150764736]}}, {"type": "Feature", "properties": {"norad_id": 36005, "name": "COSMOS 2251 DEB", "group": "cosmos-2251-debris", "lat": 32.63934623192075, "lon": -110.0467698659384, "alt_km": 717.1112425350857, "timestamp": "2025-12-19T22:41:52.792977+00:00", "meta": {"OBJECT_NAME": "COSMOS 2251 DEB", "OBJECT_ID": "1993-036AWX", "EPOCH": "2025-12-19T12:04:06.937248", "MEAN_MOTION": 14.47367742, "ECCENTRICITY": 0.0061732, "INCLINATION": 74.0272, "RA_OF_ASC_NODE": 81.3523, "ARG_OF_PERICENTER": 217.3052, "MEAN_ANOMALY": 142.3813, "EPHEMERIS_TYPE": 0, "CLASSIFICATION_TYPE": "U", "NORAD_CAT_ID": 36005, "ELEMENT_SET_NO": 999, "REV_AT_EPOCH": 87682, "BSTAR": 0.00013946, "MEAN_MOTION_DOT": 4.95e-06, "MEAN_MOTION_DDOT": 0}, "tle": {"line1": "1 36005U 93036AWX 25353.50285807  .00000495  00000+0  13946-3 0  9991", "line2": "2 36005  74.0272  81.3523 0061732 217.3052 142.3813 14.47367742876827"}}, "geometry": {"type": "Point", "coordinates": [-110.0467698659384, 32.63934623192075]}}, {"type": "Feature", "properties": {"norad_id": 36045, "name": "COSMOS 2251 DEB", "group": "cosmos-2251-debris", "lat": 62.74721700990601, "lon": 79.33947993640639, "alt_km": 621.4350888853232, "timestamp": "2025-12-19T22:41:52.792988+00:00", "meta": {"OBJECT_NAME": "COSMOS 2251 DEB", "OBJECT_ID": "1993-036AXG", "EPOCH": "2025-12-17T21:23:36.435552", "MEAN_MOTION": 14.69971183, "ECCENTRICITY": 0.0048002, "INCLINATION": 73.7643, "RA_OF_ASC_NODE": 48.9349, "ARG_OF_PERICENTER": 60.9199, "MEAN_ANOMALY": 299.6765, "EPHEMERIS_TYPE": 0, "CLASSIFICATION_TYPE": "U", "NORAD_CAT_ID": 36045, "ELEMENT_SET_NO": 999, "REV_AT_EPOCH": 8464, "BSTAR": 0.0014164853, "MEAN_MOTION_DOT": 8.618e-05, "MEAN_MOTION_DDOT": 0}, "tle": {"line1": "1 36045U 93036AXG 25351.89139393  .00008618  00000+0  14165-2 0  9991", "line2": "2 36045  73.7643  48.9349 0048002  60.9199 299.6765 14.69971183 84640"}}, "geometry": {"type": "Point", "coordinates": [79.33947993640639, 62.74721700990601]}}, {"type": "Feature", "properties": {"norad_id": 36046, "name": "COSMOS 2251 DEB", "group": "cosmos-2251-debris", "lat": 6.973872243976796, "lon": -95.3744278431193, "alt_km": 647.2870947375559, "timestamp": "2025-12-19T22:41:52.792998+00:00", "meta": {"OBJECT_NAME": "COSMOS 2251 DEB", "OBJECT_ID": "1993-036AXH", "EPOCH": "2025-12-16T01:21:09.149760", "MEAN_MOTION": 14.65292015, "ECCENTRICITY": 0.00556784, "INCLINATION": 74.0168, "RA_OF_ASC_NODE": 270.107, "ARG_OF_PERICENTER": 55.1264, "MEAN_ANOMALY": 324.2312, "EPHEMERIS_TYPE": 0, "CLASSIFICATION_TYPE": "U", "NORAD_CAT_ID": 36046, "ELEMENT_SET_NO": 999, "REV_AT_EPOCH": 64052, "BSTAR": 0.00042488876, "MEAN_MOTION_DOT": 2.313e-05, "MEAN_MOTION_DDOT": 0}, "tle": {"line1": "1 36046U 93036AXH 25350.05635590  .00002313  00000+0  42489-3 0  9996", "line2": "2 36046  74.0168 270.1070 0055678  55.1264 324.2312 14.65292015640527"}}, "geometry": {"type": "Point", "coordinates": [-95.3744278431193, 6.973872243976796]}}]}